STARLINK-34591          
1 64734U 25144L   25205.91668981 -.00528915  00000+0 -10043-1 0  9992
2 64734  53.1601 161.3744 0001232  94.3118 339.5093 15.49638155  4847
STARLINK-34587          
1 64735U 25144M   25205.91668981 -.00531305  00000+0 -10091-1 0  9993
2 64735  53.1601 161.3703 0001250 101.0050 334.7332 15.49639355  4806
STARLINK-34130          
1 64736U 25144N   25205.91668981 -.00532043  00000+0 -10106-1 0  9991
2 64736  53.1601 161.3661 0001138 101.0523 336.6026 15.49639906  4869
STARLINK-34619          
1 64737U 25144P   25205.91668981 -.00528258  00000+0 -10030-1 0  9991
2 64737  53.1602 161.3619 0001143 103.3715 336.2007 15.49637762  4861
STARLINK-34597          
1 64738U 25144Q   25205.91668981 -.00521474  00000+0 -98937-2 0  9998
2 64738  53.1604 161.3577 0001083 104.2326 337.2556 15.49634891  4846
STARLINK-34471          
1 64739U 25144R   25205.91668981 -.00525964  00000+0 -99839-2 0  9999
2 64739  53.1602 161.3536 0001163 101.5011 341.9051 15.49636556  4808
STARLINK-34208          
1 64740U 25144S   25205.91668981 -.00518990  00000+0 -98437-2 0  9995
2 64740  53.1602 161.3496 0001107 101.7730 343.5482 15.49634011  4869
STARLINK-34205          
1 64741U 25144T   25205.91668981 -.00520887  00000+0 -98821-2 0  9991
2 64741  53.1602 161.3458 0001223 104.7855 342.4559 15.49633332  4866
STARLINK-34607          
1 64742U 25144U   25205.91668981 -.00526122  00000+0 -99867-2 0  9991
2 64742  53.1601 161.3414 0001099 100.3316 348.8226 15.49638002  4841
STARLINK-34236          
1 64743U 25144V   25205.91668981 -.00520805  00000+0 -98804-2 0  9994
2 64743  53.1602 161.3379 0001064  99.1497 351.9231 15.49634328  4860
STARLINK-34185          
1 64744U 25144W   25205.91668981 -.00520703  00000+0 -98784-2 0  9999
2 64744  53.1601 161.3337 0001158 100.4384 352.5516 15.49633646  4864
STARLINK-34581          
1 64745U 25144X   25205.91668981 -.00519485  00000+0 -98541-2 0  9996
2 64745  53.1601 161.3297 0001080 106.5966 348.3107 15.49633046  4860
STARLINK-34592          
1 64746U 25144Y   25205.91668981 -.00515940  00000+0 -97838-2 0  9997
2 64746  53.1601 161.3259 0001070 106.9036 349.9237 15.49629096  4861
STARLINK-34589          
1 64747U 25144Z   25205.91668981  .00070052  00000+0  10918-2 0  9990
2 64747  53.1600 161.3105 0001209  83.5797  20.4801 15.53249536  4869
STARLINK-34536          
1 64748U 25144AA  25205.91668981 -.00519017  00000+0 -98458-2 0  9997
2 64748  53.1601 161.3176 0001116 107.9163 352.7447 15.49629533  4865
STARLINK-34595          
1 64749U 25144AB  25205.91668981 -.00528366  00000+0 -10035-1 0  9999
2 64749  53.1603 161.3102 0001132  92.2537  12.2389 15.49629934  4864
STARLINK-34531          
1 64750U 25144AC  25205.91668981 -.00512963  00000+0 -97127-2 0  9995
2 64750  53.1599 161.3138 0001235  94.5372   8.0000 15.49659938  4865
STARLINK-33965          
1 64755U 25147A   25205.91668981 -.01499954  00000+0 -16938-1 0  9998
2 64755  53.1595 225.5504 0001017  94.3344 170.8513 15.64749340  3883
STARLINK-34371          
1 64756U 25147B   25205.91668981 -.01496918  00000+0 -16901-1 0  9996
2 64756  53.1589 225.5470 0001067  92.3059 174.7980 15.64746910  3796
STARLINK-34401          
1 64757U 25147C   25205.91668981 -.01500083  00000+0 -16939-1 0  9997
2 64757  53.1591 225.5430 0001178  91.0977 177.9228 15.64748770  3734
STARLINK-34593          
1 64758U 25147D   25205.91668981 -.01500524  00000+0 -16944-1 0  9994
2 64758  53.1594 225.5386 0001155  92.8918 178.0446 15.64749831  3842
STARLINK-34598          
1 64759U 25147E   25205.91668981 -.01499654  00000+0 -16933-1 0  9994
2 64759  53.1597 225.5348 0001156  95.8184 177.0342 15.64749855  3797
STARLINK-34235          
1 64760U 25147F   25205.91668981 -.01500646  00000+0 -16947-1 0  9995
2 64760  53.1595 225.5311 0001060  96.9625 177.8097 15.64748549  3887
STARLINK-34635          
1 64761U 25147G   25205.91668981 -.01498001  00000+0 -16914-1 0  9991
2 64761  53.1597 225.5266 0001015  99.2275 177.4595 15.64748398  3843
STARLINK-34638          
1 64762U 25147H   25205.91668981 -.01498192  00000+0 -16916-1 0  9995
2 64762  53.1597 225.5232 0001091  89.3321 189.2716 15.64748293  3843
STARLINK-34534          
1 64763U 25147J   25205.91668981 -.01496909  00000+0 -16900-1 0  9993
2 64763  53.1596 225.5187 0001029 100.3755 180.1441 15.64748592  3845
STARLINK-34261          
1 64764U 25147K   25205.91668981 -.01496669  00000+0 -16897-1 0  9992
2 64764  53.1596 225.5148 0001120  93.0963 189.3412 15.64747713  3881
STARLINK-34566          
1 64765U 25147L   25205.91668981 -.01498010  00000+0 -16915-1 0  9996
2 64765  53.1594 225.5109 0001028  94.3749 189.9816 15.64746962  3845
STARLINK-34645          
1 64766U 25147M   25205.91668981 -.01498861  00000+0 -16924-1 0  9991
2 64766  53.1592 225.5065 0001138 102.6803 183.5919 15.64748522  3849
STARLINK-34639          
1 64767U 25147N   25205.91668981 -.01498377  00000+0 -16919-1 0  9998
2 64767  53.1591 225.5026 0000941  86.2901 201.8978 15.64748669  3798
STARLINK-34609          
1 64768U 25147P   25205.91668981 -.01497438  00000+0 -16907-1 0  9993
2 64768  53.1592 225.4989 0001014 100.5154 189.5894 15.64748235  3843
STARLINK-34246          
1 64769U 25147Q   25205.91668981 -.01494867  00000+0 -16878-1 0  9994
2 64769  53.1594 225.4953 0000955  85.9690 206.0581 15.64743672  3849
STARLINK-34618          
1 64770U 25147R   25205.91668981 -.01498661  00000+0 -16923-1 0  9993
2 64770  53.1594 225.4912 0000920  91.3276 202.6121 15.64748257  3733
STARLINK-34541          
1 64771U 25147S   25205.91668981 -.01500124  00000+0 -16941-1 0  9992
2 64771  53.1595 225.4869 0001012  96.3120 199.5452 15.64748120  3721
STARLINK-34652          
1 64772U 25147T   25205.91668981 -.01498956  00000+0 -16928-1 0  9997
2 64772  53.1595 225.4829 0001010 100.9319 196.8459 15.64745566  3849
STARLINK-34612          
1 64773U 25147U   25205.91668981 -.01499553  00000+0 -16934-1 0  9999
2 64773  53.1597 225.4789 0000944  93.7448 205.9464 15.64748434  3849
STARLINK-34621          
1 64774U 25147V   25205.91668981 -.01499637  00000+0 -16935-1 0  9994
2 64774  53.1597 225.4745 0000943  95.1931 206.4152 15.64748522  3730
STARLINK-34657          
1 64775U 25147W   25205.91668981 -.01496396  00000+0 -16895-1 0  9999
2 64775  53.1595 225.4707 0001000  93.0075 210.5175 15.64746664  3846
STARLINK-34637          
1 64776U 25147X   25205.91668981 -.01497849  00000+0 -16913-1 0  9995
2 64776  53.1593 225.4665 0000978  89.5927 215.8489 15.64747365  3730
STARLINK-34547          
1 64777U 25147Y   25205.91668981 -.01497544  00000+0 -16909-1 0  9993
2 64777  53.1595 225.4629 0001013 101.6370 205.7212 15.64747266  3790
STARLINK-34537          
1 64778U 25147Z   25205.91668981  .00161813  00000+0  92532-3 0  9996
2 64778  53.1544 225.0227 0000865  75.3108  85.5343 15.77882429  3889
STARLINK-34585          
1 64779U 25147AA  25205.91668981 -.01497064  00000+0 -16903-1 0  9996
2 64779  53.1594 225.4545 0001017 100.3428 210.8488 15.64747147  3792
STARLINK-34491          
1 64780U 25147AB  25205.91668981 -.01499555  00000+0 -16934-1 0  9999
2 64780  53.1596 225.4509 0000849  92.7462 220.3609 15.64749306  3846
STARLINK-34582          
1 64781U 25147AC  25205.91668981 -.01499800  00000+0 -16937-1 0  9996
2 64781  53.1595 225.4469 0001021 100.8061 214.2202 15.64747908  3735
STARLINK-34482          
1 64782U 25147AD  25205.91668981 -.01497498  00000+0 -16909-1 0  9997
2 64782  53.1594 225.4425 0000886  96.6662 220.2762 15.64747555  3886
STARLINK-34629          
1 64790U 25150A   25205.91668981 -.00977162  00000+0 -40085-2 0  9993
2 64790  69.9947  15.7589 0003868 275.2179 173.6632 15.87960402  2614
STARLINK-34697          
1 64791U 25150B   25205.91668981 -.00977964  00000+0 -40045-2 0  9990
2 64791  69.9944  15.7571 0003873 277.5275 172.8631 15.87998584  2613
STARLINK-34632          
1 64792U 25150C   25205.91668981 -.00980326  00000+0 -40065-2 0  9999
2 64792  69.9944  15.7546 0004002 279.0940 173.2968 15.88040356  2611
STARLINK-34693          
1 64793U 25150D   25205.91668981 -.00988314  00000+0 -40333-2 0  9993
2 64793  69.9944  15.7519 0003983 281.2184 173.2440 15.88087932  2610
STARLINK-34666          
1 64794U 25150E   25205.91668981 -.00991702  00000+0 -40399-2 0  9991
2 64794  69.9944  15.7499 0003967 278.7052 177.7064 15.88131670  2615
STARLINK-34567          
1 64795U 25150F   25205.91668981 -.01000485  00000+0 -40701-2 0  9999
2 64795  69.9945  15.7473 0003909 276.7390 181.6525 15.88180074  2616
STARLINK-34646          
1 64796U 25150G   25205.91668981 -.01002789  00000+0 -40717-2 0  9996
2 64796  69.9944  15.7448 0003756 277.8133 182.7685 15.88225757  2612
STARLINK-34641          
1 64797U 25150H   25205.91668981 -.01007655  00000+0 -40842-2 0  9993
2 64797  69.9942  15.7424 0003929 277.5380 184.9622 15.88269746  2552
STARLINK-34649          
1 64798U 25150J   25205.91668981 -.01011821  00000+0 -40942-2 0  9995
2 64798  69.9943  15.7396 0003687 281.0918 183.6611 15.88316490  2610
STARLINK-34662          
1 64799U 25150K   25205.91668981 -.01014841  00000+0 -40984-2 0  9997
2 64799  69.9943  15.7378 0003940 279.7988 186.5979 15.88358590  2610
STARLINK-34660          
1 64800U 25150L   25205.91668981 -.01017459  00000+0 -41017-2 0  9996
2 64800  69.9943  15.7357 0003925 279.6210 188.5683 15.88400136  2618
STARLINK-34604          
1 64801U 25150M   25205.91668981 -.01024432  00000+0 -41232-2 0  9995
2 64801  69.9940  15.7327 0003847 278.9289 191.5160 15.88449235  2611
STARLINK-34658          
1 64802U 25150N   25205.91668981 -.01028363  00000+0 -41318-2 0  9998
2 64802  69.9940  15.7303 0003831 275.8250 196.6328 15.88493283  2617
STARLINK-34620          
1 64803U 25150P   25205.91668981 -.01037168  00000+0 -41617-2 0  9994
2 64803  69.9941  15.7280 0003807 277.0640 197.2078 15.88540053  2610
